start=new Date('2021-10-18T00:00:00.000Z').valueOf();
sats=[{"BSTAR":"0.00006630300000","TLE_LINE1":"1 48639U 21044B   21290.24322318  .00000706  00000-0  66303-4 0  9995","REF_FRAME":"TEME","TIME_SYSTEM":"UTC","SITE":"AFETR","CENTER_NAME":"EARTH","PERIOD":"95.593","TLE_LINE2":"2 48639  53.0538 119.2432 0001745  78.0176 282.1008 15.06380931 21958","SEMIMAJOR_AXIS":"6925.407","REV_AT_EPOCH":"2195","MEAN_MOTION_DDOT":"0.0000000000000","OBJECT_TYPE":"PAYLOAD","RA_OF_ASC_NODE":"119.2432","RCS_SIZE":"LARGE","ELEMENT_SET_NO":"999","MEAN_ELEMENT_THEORY":"SGP4","GP_ID":"187446699","PERIAPSIS":"546.064","NORAD_CAT_ID":"48639","MEAN_MOTION":"15.06380931","DECAY_DATE":null,"FILE":"3168566","ARG_OF_PERICENTER":"78.0176","MEAN_ANOMALY":"282.1008","EPHEMERIS_TYPE":"0","MEAN_MOTION_DOT":"0.00000706","OBJECT_ID":"2021-044B","APOAPSIS":"548.480","EPOCH":"2021-10-17T05:50:14.482752","ECCENTRICITY":"0.00017450","INCLINATION":"53.0538","CLASSIFICATION_TYPE":"U","COUNTRY_CODE":"US","OBJECT_NAME":"STARLINK-2739","LAUNCH_DATE":"2021-05-26"},{"CLASSIFICATION_TYPE":"U","INCLINATION":"53.0558","LAUNCH_DATE":"2021-05-26","COUNTRY_CODE":"US","OBJECT_NAME":"STARLINK-2736","MEAN_MOTION":"15.06413414","GP_ID":"187445914","NORAD_CAT_ID":"48640","PERIAPSIS":"545.884","MEAN_ELEMENT_THEORY":"SGP4","APOAPSIS":"548.461","EPOCH":"2021-10-17T00:15:49.514400","ECCENTRICITY":"0.00018600","OBJECT_ID":"2021-044C","EPHEMERIS_TYPE":"0","MEAN_ANOMALY":"275.2441","MEAN_MOTION_DOT":"-0.00002334","DECAY_DATE":null,"FILE":"3168566","ARG_OF_PERICENTER":"84.8760","OBJECT_TYPE":"PAYLOAD","RA_OF_ASC_NODE":"120.2866","MEAN_MOTION_DDOT":"0.0000000000000","REV_AT_EPOCH":"2191","ELEMENT_SET_NO":"999","RCS_SIZE":"LARGE","PERIOD":"95.591","CENTER_NAME":"EARTH","TLE_LINE2":"2 48640  53.0558 120.2866 0001860  84.8760 275.2441 15.06413414 21910","SITE":"AFETR","REF_FRAME":"TEME","TIME_SYSTEM":"UTC","BSTAR":"-0.00013777000000","TLE_LINE1":"1 48640U 21044C   21290.01098975 -.00002334  00000-0 -13777-3 0  9998","SEMIMAJOR_AXIS":"6925.307"},{"LAUNCH_DATE":"2021-05-26","COUNTRY_CODE":"US","OBJECT_NAME":"STARLINK-2754","INCLINATION":"53.0549","CLASSIFICATION_TYPE":"U","OBJECT_ID":"2021-044D","APOAPSIS":"548.332","ECCENTRICITY":"0.00015610","EPOCH":"2021-10-17T05:58:52.655520","DECAY_DATE":null,"ARG_OF_PERICENTER":"87.3063","FILE":"3168566","EPHEMERIS_TYPE":"0","MEAN_ANOMALY":"272.8105","MEAN_MOTION_DOT":"0.00000586","MEAN_MOTION":"15.06387674","NORAD_CAT_ID":"48641","GP_ID":"187446476","PERIAPSIS":"546.170","MEAN_ELEMENT_THEORY":"SGP4","RCS_SIZE":"LARGE","ELEMENT_SET_NO":"999","OBJECT_TYPE":"PAYLOAD","RA_OF_ASC_NODE":"124.2234","REV_AT_EPOCH":"2188","MEAN_MOTION_DDOT":"0.0000000000000","SEMIMAJOR_AXIS":"6925.386","SITE":"AFETR","PERIOD":"95.593","CENTER_NAME":"EARTH","TLE_LINE2":"2 48641  53.0549 124.2234 0001561  87.3063 272.8105 15.06387674 21880","BSTAR":"0.00005824200000","TLE_LINE1":"1 48641U 21044D   21290.24922055  .00000586  00000-0  58242-4 0  9991","REF_FRAME":"TEME","TIME_SYSTEM":"UTC"},{"MEAN_MOTION":"15.06393426","GP_ID":"187446364","NORAD_CAT_ID":"48642","PERIAPSIS":"545.938","MEAN_ELEMENT_THEORY":"SGP4","OBJECT_ID":"2021-044E","APOAPSIS":"548.529","ECCENTRICITY":"0.00018710","EPOCH":"2021-10-17T06:18:43.795296","DECAY_DATE":null,"ARG_OF_PERICENTER":"79.4856","FILE":"3168566","MEAN_ANOMALY":"280.6344","EPHEMERIS_TYPE":"0","MEAN_MOTION_DOT":"0.00000599","INCLINATION":"53.0539","CLASSIFICATION_TYPE":"U","LAUNCH_DATE":"2021-05-26","COUNTRY_CODE":"US","OBJECT_NAME":"STARLINK-2646","SITE":"AFETR","CENTER_NAME":"EARTH","PERIOD":"95.593","TLE_LINE2":"2 48642  53.0539 124.1536 0001871  79.4856 280.6344 15.06393426 21884","BSTAR":"0.00005914300000","TLE_LINE1":"1 48642U 21044E   21290.26300689  .00000599  00000-0  59143-4 0  9992","REF_FRAME":"TEME","TIME_SYSTEM":"UTC","SEMIMAJOR_AXIS":"6925.369","RA_OF_ASC_NODE":"124.1536","OBJECT_TYPE":"PAYLOAD","REV_AT_EPOCH":"2188","MEAN_MOTION_DDOT":"0.0000000000000","RCS_SIZE":"LARGE","ELEMENT_SET_NO":"999"},{"COUNTRY_CODE":"US","OBJECT_NAME":"STARLINK-2704","LAUNCH_DATE":"2021-05-26","CLASSIFICATION_TYPE":"U","INCLINATION":"53.0544","EPHEMERIS_TYPE":"0","MEAN_ANOMALY":"281.3351","MEAN_MOTION_DOT":"0.00000863","DECAY_DATE":null,"ARG_OF_PERICENTER":"78.7847","FILE":"3168566","APOAPSIS":"548.558","ECCENTRICITY":"0.00018590","EPOCH":"2021-10-17T05:53:35.399040","OBJECT_ID":"2021-044F","GP_ID":"187446590","NORAD_CAT_ID":"48643","PERIAPSIS":"545.983","MEAN_ELEMENT_THEORY":"SGP4","MEAN_MOTION":"15.06381494","ELEMENT_SET_NO":"999","RCS_SIZE":"LARGE","MEAN_MOTION_DDOT":"0.0000000000000","REV_AT_EPOCH":"2188","OBJECT_TYPE":"PAYLOAD","RA_OF_ASC_NODE":"124.2365","SEMIMAJOR_AXIS":"6925.405","REF_FRAME":"TEME","TIME_SYSTEM":"UTC","BSTAR":"0.00007684500000","TLE_LINE1":"1 48643U 21044F   21290.24554860  .00000863  00000-0  76845-4 0  9995","PERIOD":"95.593","CENTER_NAME":"EARTH","TLE_LINE2":"2 48643  53.0544 124.2365 0001859  78.7847 281.3351 15.06381494 21888","SITE":"AFETR"},{"OBJECT_NAME":"STARLINK-2695","COUNTRY_CODE":"US","LAUNCH_DATE":"2021-05-26","INCLINATION":"53.0554","CLASSIFICATION_TYPE":"U","FILE":"3168566","ARG_OF_PERICENTER":"82.2650","DECAY_DATE":null,"MEAN_MOTION_DOT":"0.00001022","MEAN_ANOMALY":"277.8528","EPHEMERIS_TYPE":"0","OBJECT_ID":"2021-044G","EPOCH":"2021-10-17T05:48:15.801120","ECCENTRICITY":"0.00016690","APOAPSIS":"548.403","NORAD_CAT_ID":"48644","GP_ID":"187446252","PERIAPSIS":"546.092","MEAN_ELEMENT_THEORY":"SGP4","MEAN_MOTION":"15.06388928","RCS_SIZE":"LARGE","ELEMENT_SET_NO":"999","REV_AT_EPOCH":"2188","MEAN_MOTION_DDOT":"0.0000000000000","OBJECT_TYPE":"PAYLOAD","RA_OF_ASC_NODE":"124.2523","SEMIMAJOR_AXIS":"6925.382","TLE_LINE1":"1 48644U 21044G   21290.24184955  .00001022  00000-0  87526-4 0  9996","BSTAR":"0.00008752600000","TIME_SYSTEM":"UTC","REF_FRAME":"TEME","SITE":"AFETR","TLE_LINE2":"2 48644  53.0554 124.2523 0001669  82.2650 277.8528 15.06388928 21882","CENTER_NAME":"EARTH","PERIOD":"95.593"},{"SEMIMAJOR_AXIS":"6925.366","REF_FRAME":"TEME","TIME_SYSTEM":"UTC","BSTAR":"0.00008540400000","TLE_LINE1":"1 48645U 21044H   21290.23815299  .00000991  00000-0  85404-4 0  9995","PERIOD":"95.592","CENTER_NAME":"EARTH","TLE_LINE2":"2 48645  53.0538 124.2653 0001718  80.5503 279.5680 15.06394387 21886","SITE":"AFETR","ELEMENT_SET_NO":"999","RCS_SIZE":"LARGE","MEAN_MOTION_DDOT":"0.0000000000000","REV_AT_EPOCH":"2188","OBJECT_TYPE":"PAYLOAD","RA_OF_ASC_NODE":"124.2653","MEAN_ANOMALY":"279.5680","EPHEMERIS_TYPE":"0","MEAN_MOTION_DOT":"0.00000991","DECAY_DATE":null,"FILE":"3168566","ARG_OF_PERICENTER":"80.5503","APOAPSIS":"548.421","EPOCH":"2021-10-17T05:42:56.418336","ECCENTRICITY":"0.00017180","OBJECT_ID":"2021-044H","PERIAPSIS":"546.041","GP_ID":"187446139","NORAD_CAT_ID":"48645","MEAN_ELEMENT_THEORY":"SGP4","MEAN_MOTION":"15.06394387","COUNTRY_CODE":"US","OBJECT_NAME":"STARLINK-2733","LAUNCH_DATE":"2021-05-26","CLASSIFICATION_TYPE":"U","INCLINATION":"53.0538"},{"OBJECT_TYPE":"PAYLOAD","RA_OF_ASC_NODE":"124.2839","MEAN_MOTION_DDOT":"0.0000000000000","REV_AT_EPOCH":"2188","ELEMENT_SET_NO":"999","RCS_SIZE":"MEDIUM","TLE_LINE2":"2 48646  53.0540 124.2839 0001933  69.5231 290.5966 15.06378687 21885","CENTER_NAME":"EARTH","PERIOD":"95.593","SITE":"AFETR","TIME_SYSTEM":"UTC","REF_FRAME":"TEME","TLE_LINE1":"1 48646U 21044J   21290.23449069  .00000893  00000-0  78923-4 0  9993","BSTAR":"0.00007892300000","SEMIMAJOR_AXIS":"6925.414","CLASSIFICATION_TYPE":"U","INCLINATION":"53.0540","LAUNCH_DATE":"2021-05-26","OBJECT_NAME":"STARLINK-2732","COUNTRY_CODE":"US","MEAN_MOTION":"15.06378687","GP_ID":"187446027","PERIAPSIS":"545.940","NORAD_CAT_ID":"48646","MEAN_ELEMENT_THEORY":"SGP4","ECCENTRICITY":"0.00019330","EPOCH":"2021-10-17T05:37:39.995616","APOAPSIS":"548.618","OBJECT_ID":"2021-044J","MEAN_MOTION_DOT":"0.00000893","EPHEMERIS_TYPE":"0","MEAN_ANOMALY":"290.5966","FILE":"3168566","ARG_OF_PERICENTER":"69.5231","DECAY_DATE":null},{"PERIAPSIS":"545.991","GP_ID":"187446700","MEAN_ELEMENT_THEORY":"SGP4","NORAD_CAT_ID":"48647","MEAN_MOTION":"15.06394119","MEAN_MOTION_DOT":"0.00001463","EPHEMERIS_TYPE":"0","MEAN_ANOMALY":"282.7172","ARG_OF_PERICENTER":"77.4017","FILE":"3168566","DECAY_DATE":null,"EPOCH":"2021-10-17T00:45:42.539904","ECCENTRICITY":"0.00017920","APOAPSIS":"548.473","OBJECT_ID":"2021-044K","CLASSIFICATION_TYPE":"U","INCLINATION":"53.0547","OBJECT_NAME":"STARLINK-2691","COUNTRY_CODE":"US","LAUNCH_DATE":"2021-05-26","TIME_SYSTEM":"UTC","REF_FRAME":"TEME","TLE_LINE1":"1 48647U 21044K   21290.03174236  .00001463  00000-0  11712-3 0  9999","BSTAR":"0.00011712000000","TLE_LINE2":"2 48647  53.0547 125.2017 0001792  77.4017 282.7172 15.06394119 21852","CENTER_NAME":"EARTH","PERIOD":"95.593","SITE":"AFETR","SEMIMAJOR_AXIS":"6925.367","MEAN_MOTION_DDOT":"0.0000000000000","REV_AT_EPOCH":"2185","OBJECT_TYPE":"PAYLOAD","RA_OF_ASC_NODE":"125.2017","ELEMENT_SET_NO":"999","RCS_SIZE":"LARGE"},{"OBJECT_NAME":"STARLINK-2521","COUNTRY_CODE":"US","LAUNCH_DATE":"2021-05-26","INCLINATION":"53.0548","CLASSIFICATION_TYPE":"U","FILE":"3168566","ARG_OF_PERICENTER":"72.8863","DECAY_DATE":null,"MEAN_MOTION_DOT":"0.00001434","MEAN_ANOMALY":"287.2318","EPHEMERIS_TYPE":"0","OBJECT_ID":"2021-044L","ECCENTRICITY":"0.00017570","EPOCH":"2021-10-17T00:44:20.939424","APOAPSIS":"548.447","PERIAPSIS":"546.013","GP_ID":"187445915","MEAN_ELEMENT_THEORY":"SGP4","NORAD_CAT_ID":"48648","MEAN_MOTION":"15.06394649","RCS_SIZE":"LARGE","ELEMENT_SET_NO":"999","REV_AT_EPOCH":"2185","MEAN_MOTION_DDOT":"0.0000000000000","RA_OF_ASC_NODE":"125.2024","OBJECT_TYPE":"PAYLOAD","SEMIMAJOR_AXIS":"6925.365","TLE_LINE1":"1 48648U 21044L   21290.03079791  .00001434  00000-0  11518-3 0  9992","BSTAR":"0.00011518000000","TIME_SYSTEM":"UTC","REF_FRAME":"TEME","SITE":"AFETR","TLE_LINE2":"2 48648  53.0548 125.2024 0001757  72.8863 287.2318 15.06394649 21851","PERIOD":"95.592","CENTER_NAME":"EARTH"}];
